ONEWEB-0094             
1 45450U 20020AC  24287.46353651  .00000036  00000+0  60729-4 0  9994
2 45450  87.9083 127.6990 0001597  93.2542 266.8772 13.17649868225758
ONEWEB-0087             
1 45451U 20020AD  24287.13116358  .00000554  00000+0  15270-2 0  9994
2 45451  87.8914 142.9483 0001555  89.3146 270.8161 13.11419053222364
ONEWEB-0082             
1 45452U 20020AE  24287.12791574  .00000610  00000+0  16865-2 0  9997
2 45452  87.8919 142.9580 0001726  80.6160 279.5163 13.11418818222454
ONEWEB-0050             
1 45453U 20020AF  24287.22867251  .00010106  00000+0  10034-2 0  9998
2 45453  88.0086 358.2441 0003939  59.2302 300.9315 14.91647734249209
ONEWEB-0034             
1 45454U 20020AG  24287.07365983  .00000209  00000+0  55527-3 0  9997
2 45454  87.8916 142.9876 0001613  82.0189 278.1122 13.11413900222360
ONEWEB-0060             
1 45455U 20020AH  24287.11616425  .00000181  00000+0  47368-3 0  9996
2 45455  87.8922 142.9986 0001445  76.7727 283.3562 13.11422117222323
ONEWEB-0086             
1 45456U 20020AJ  24287.55685495 -.00000787  00000+0 -22578-2 0  9997
2 45456  87.8917 142.8922 0001650  96.1782 263.9533 13.11416403222448
ONEWEB-0088             
1 45457U 20020AK  24287.07703739  .00000040  00000+0  77089-4 0  9996
2 45457  87.8912 142.9474 0001521  83.5228 276.6073 13.11417023222314
